NORAD_CAT_ID,OBJECT_NAME,OBJECT_TYPE,EPOCH,MEAN_MOTION,ECCENTRICITY,INCLINATION,RA_OF_ASC_NODE,ARG_OF_PERICENTER,MEAN_ANOMALY,BSTAR,MEAN_MOTION_DOT,MEAN_MOTION_DDOT,TLE_LINE0,TLE_LINE1,TLE_LINE2,SEMIMAJOR_AXIS,PERIOD,APOGEE,PERIGEE,DECAYED
54065.0,STARLINK-5187,PAYLOAD,2023-08-31 01:48:52,15.08844651,0.0001188,53.2169,161.2561,81.4859,278.6268,2.6567e-05,1.35e-06,0.0,0 STARLINK-5187,1 54065U 22136Q   23243.07560951  .00000135  00000-0  26567-4 0  9990,2 54065  53.2169 161.2561 0001188  81.4859 278.6268 15.08844651 48196,6917.866,95.437,540.553,538.909,0.0
54065.0,STARLINK-5187,PAYLOAD,2023-08-31 04:59:38,15.08842166,0.0001237,53.2172,160.6616,84.9318,275.1815,6.4571e-05,7.4e-06,0.0,0 STARLINK-5187,1 54065U 22136Q   23243.20808979  .00000740  00000-0  64571-4 0  9999,2 54065  53.2172 160.6616 0001237  84.9318 275.1815 15.08842166 47735,6917.874,95.437,540.595,538.883,0.0
54065.0,STARLINK-5187,PAYLOAD,2023-09-01 11:11:59,15.08837371,0.0001567,53.2171,155.0136,85.0174,275.0997,5.5076e-05,5.89e-06,0.0,0 STARLINK-5187,1 54065U 22136Q   23244.46665818  .00000589  00000-0  55076-4 0  9992,2 54065  53.2171 155.0136 0001567  85.0174 275.0997 15.08837371 48404,6917.888,95.438,540.837,538.669,0.0
54065.0,STARLINK-5187,PAYLOAD,2023-09-02 11:02:46,15.08833077,0.0001906,53.2179,150.551,80.3115,279.8092,3.5161e-05,2.71e-06,0.0,0 STARLINK-5187,1 54065U 22136Q   23245.46026200  .00000271  00000-0  35161-4 0  9990,2 54065  53.2179 150.5510 0001906  80.3115 279.8092 15.08833077 48078,6917.902,95.438,541.085,538.448,0.0
54065.0,STARLINK-5187,PAYLOAD,2023-09-02 23:45:51,15.08839968,0.0001491,53.2206,148.1728,78.6738,281.4421,2.9732e-05,1.85e-06,0.0,0 STARLINK-5187,1 54065U 22136Q   23245.99017822  .00000185  00000-0  29732-4 0  9999,2 54065  53.2206 148.1728 0001491  78.6738 281.4421 15.08839968 48635,6917.88,95.438,540.777,538.714,0.0
54065.0,STARLINK-5187,PAYLOAD,2023-09-03 02:56:37,15.08842448,0.000164,53.2185,147.577,79.4524,280.6652,4.6648e-05,4.54e-06,0.0,0 STARLINK-5187,1 54065U 22136Q   23246.12265673  .00000454  00000-0  46648-4 0  9998,2 54065  53.2185 147.5770 0001640  79.4524 280.6652 15.08842448 48172,6917.873,95.437,540.872,538.603,0.0
54065.0,STARLINK-5187,PAYLOAD,2023-09-04 02:47:24,15.08837885,0.000145,53.2174,143.1163,85.781,274.3348,6.1327e-05,6.88e-06,0.0,0 STARLINK-5187,1 54065U 22136Q   23247.11625830  .00000688  00000-0  61327-4 0  9993,2 54065  53.2174 143.1163 0001450  85.7810 274.3348 15.08837885 48806,6917.887,95.438,540.755,538.749,0.0
54065.0,STARLINK-5187,PAYLOAD,2023-09-04 10:44:20,15.08838003,0.0001434,53.2173,141.6297,85.6672,274.4484,5.7528e-05,6.28e-06,0.0,0 STARLINK-5187,1 54065U 22136Q   23247.44745855  .00000628  00000-0  57528-4 0  9991,2 54065  53.2173 141.6297 0001434  85.6672 274.4484 15.08838003 48370,6917.886,95.438,540.744,538.759,0.0
54065.0,STARLINK-5187,PAYLOAD,2023-09-05 02:38:11,15.08832556,0.0001471,53.2176,138.6552,90.189,269.9271,0.00020543,2.982e-05,0.0,0 STARLINK-5187,1 54065U 22136Q   23248.10985668  .00002982  00000-0  20543-3 0  9994,2 54065  53.2176 138.6552 0001471  90.1890 269.9271 15.08832556 48478,6917.903,95.438,540.786,538.751,0.0
54065.0,STARLINK-5187,PAYLOAD,2023-09-06 02:28:58,15.08839234,0.0001434,53.2181,134.1951,90.4905,269.6251,4.3101e-05,3.98e-06,0.0,0 STARLINK-5187,1 54065U 22136Q   23249.10345845  .00000398  00000-0  43101-4 0  9997,2 54065  53.2181 134.1951 0001434  90.4905 269.6251 15.08839234 49103,6917.883,95.438,540.74,538.756,0.0
54065.0,STARLINK-5187,PAYLOAD,2023-09-07 02:19:45,15.08842739,0.0001394,53.2173,129.7359,89.8139,270.3013,3.0995e-05,2.05e-06,0.0,0 STARLINK-5187,1 54065U 22136Q   23250.09705658  .00000205  00000-0  30995-4 0  9993,2 54065  53.2173 129.7359 0001394  89.8139 270.3013 15.08842739 48773,6917.872,95.437,540.701,538.773,0.0
54065.0,STARLINK-5187,PAYLOAD,2023-09-07 15:02:51,15.08835651,0.0001478,53.2159,127.3573,88.1963,271.9198,2.0755e-05,4.2e-07,0.0,0 STARLINK-5187,1 54065U 22136Q   23250.62698193  .00000042  00000-0  20755-4 0  9999,2 54065  53.2159 127.3573 0001478  88.1963 271.9198 15.08835651 49338,6917.894,95.438,540.781,538.736,0.0
54065.0,STARLINK-5187,PAYLOAD,2023-09-08 00:35:10,15.08835754,0.0001448,53.2161,125.573,87.452,272.6638,4.9298e-06,-2.09e-06,0.0,0 STARLINK-5187,1 54065U 22136Q   23251.02442345 -.00000209  00000-0  49298-5 0  9990,2 54065  53.2161 125.5730 0001448  87.4520 272.6638 15.08835754 48918,6917.893,95.438,540.76,538.757,0.0
54065.0,STARLINK-5187,PAYLOAD,2023-09-08 21:15:10,15.08829506,0.0001432,53.2176,121.7075,85.4812,274.6343,0.00015066,2.11e-05,0.0,0 STARLINK-5187,1 54065U 22136Q   23251.88554343  .00002110  00000-0  15066-3 0  9992,2 54065  53.2176 121.7075 0001432  85.4812 274.6343 15.08829506 49047,6917.912,95.438,540.768,538.787,0.0
54065.0,STARLINK-5187,PAYLOAD,2023-09-09 02:01:19,15.08845163,0.0001334,53.217,120.8153,88.7929,271.3216,6.7522e-05,7.87e-06,0.0,0 STARLINK-5187,1 54065U 22136Q   23252.08425748  .00000787  00000-0  67522-4 0  9994,2 54065  53.2170 120.8153 0001334  88.7929 271.3216 15.08845163 49550,6917.865,95.437,540.652,538.807,0.0
54065.0,STARLINK-5187,PAYLOAD,2023-09-09 08:22:52,15.08839382,0.000136,53.2174,119.6255,86.9808,273.1339,2.7673e-05,1.53e-06,0.0,0 STARLINK-5187,1 54065U 22136Q   23252.34922215  .00000153  00000-0  27673-4 0  9994,2 54065  53.2174 119.6255 0001360  86.9808 273.1339 15.08839382 49594,6917.882,95.438,540.688,538.806,0.0
54065.0,STARLINK-5187,PAYLOAD,2023-09-10 00:16:44,15.08840442,0.0001197,53.2176,116.6511,94.4062,265.7067,0.00012319,1.673e-05,0.0,0 STARLINK-5187,1 54065U 22136Q   23253.01162064  .00001673  00000-0  12319-3 0  9995,2 54065  53.2176 116.6511 0001197  94.4062 265.7067 15.08840442 49215,6917.879,95.438,540.572,538.916,0.0
54065.0,STARLINK-5187,PAYLOAD,2023-09-10 19:21:21,15.08841458,0.000132,53.2173,113.0823,93.0695,267.0448,3.7032e-06,-2.29e-06,0.0,0 STARLINK-5187,1 54065U 22136Q   23253.80650429 -.00000229  00000-0  37032-5 0  9997,2 54065  53.2173 113.0823 0001320  93.0695 267.0448 15.08841458 49816,6917.876,95.437,540.654,538.828,0.0
54065.0,STARLINK-5187,PAYLOAD,2023-09-11 08:04:26,15.08842794,0.0001148,53.2165,110.704,96.5369,263.5754,8.5143e-06,-1.52e-06,0.0,0 STARLINK-5187,1 54065U 22136Q   23254.33642227 -.00000152  00000-0  85143-5 0  9994,2 54065  53.2165 110.7040 0001148  96.5369 263.5754 15.08842794 49417,6917.872,95.437,540.531,538.943,0.0
54065.0,STARLINK-5187,PAYLOAD,2023-09-11 23:58:18,15.0884334,0.0001213,53.2165,107.7296,98.1112,262.0018,3.5136e-05,2.71e-06,0.0,0 STARLINK-5187,1 54065U 22136Q   23254.99882145  .00000271  00000-0  35136-4 0  9998,2 54065  53.2165 107.7296 0001213  98.1112 262.0018 15.08843340 49991,6917.87,95.437,540.574,538.896,0.0
54065.0,STARLINK-5187,PAYLOAD,2023-09-12 17:27:33,15.08837323,0.0001228,53.2167,104.4576,101.2013,258.9117,4.0001e-05,3.49e-06,0.0,0 STARLINK-5187,1 54065U 22136Q   23255.72746574  .00000349  00000-0  40001-4 0  9998,2 54065  53.2167 104.4576 0001228 101.2013 258.9117 15.08837323 50103,6917.889,95.438,540.603,538.904,0.0
54065.0,STARLINK-5187,PAYLOAD,2023-09-12 20:38:19,15.08841459,0.000126,53.2167,103.8627,101.8844,258.2289,7.6127e-05,9.24e-06,0.0,0 STARLINK-5187,1 54065U 22136Q   23255.85994241  .00000924  00000-0  76127-4 0  9995,2 54065  53.2167 103.8627 0001260 101.8844 258.2289 15.08841459 49642,6917.876,95.437,540.613,538.869,0.0
54065.0,STARLINK-5187,PAYLOAD,2023-09-13 17:18:19,15.08846854,0.0001307,53.2169,99.997,96.081,264.0331,9.8429e-05,1.279e-05,0.0,0 STARLINK-5187,1 54065U 22136Q   23256.72105723  .00001279  00000-0  98429-4 0  9994,2 54065  53.2169  99.9970 0001307  96.0810 264.0331 15.08846854 50256,6917.859,95.437,540.629,538.82,0.0
54065.0,STARLINK-5187,PAYLOAD,2023-09-13 20:29:05,15.08849895,0.0001304,53.2169,99.4041,84.9077,275.2064,0.00013576,1.874e-05,0.0,0 STARLINK-5187,1 54065U 22136Q   23256.85353461  .00001874  00000-0  13576-3 0  9992,2 54065  53.2169  99.4041 0001304  84.9077 275.2064 15.08849895 49790,6917.85,95.437,540.617,538.813,0.0
54065.0,STARLINK-5187,PAYLOAD,2023-09-14 13:58:21,15.08834269,0.000154,53.2177,96.1317,97.2578,262.8589,-2.4585e-05,-6.79e-06,0.0,0 STARLINK-5187,1 54065U 22136Q   23257.58219092 -.00000679  00000-0 -24585-4 0  9991,2 54065  53.2177  96.1317 0001540  97.2578 262.8589 15.08834269 49900,6917.898,95.438,540.828,538.698,0.0
54065.0,STARLINK-5187,PAYLOAD,2023-09-14 18:44:30,15.08832539,0.0001292,53.2173,95.2374,107.1253,252.988,-2.4877e-05,-6.84e-06,0.0,0 STARLINK-5187,1 54065U 22136Q   23257.78091230 -.00000684  00000-0 -24877-4 0  9995,2 54065  53.2173  95.2374 0001292 107.1253 252.9880 15.08832539 50414,6917.903,95.438,540.662,538.874,0.0
54065.0,STARLINK-5187,PAYLOAD,2023-09-15 05:52:12,15.08837142,0.0001242,53.2177,93.16,95.709,264.4044,7.2731e-06,-1.72e-06,0.0,0 STARLINK-5187,1 54065U 22136Q   23258.24459114 -.00000172  00000-0  72731-5 0  9990,2 54065  53.2177  93.1600 0001242  95.7090 264.4044 15.08837142 50003,6917.889,95.438,540.613,538.895,0.0
54065.0,STARLINK-5187,PAYLOAD,2023-09-15 16:59:54,15.08843315,0.0001191,53.2178,91.0779,82.8829,277.2299,-6.7037e-06,-3.95e-06,0.0,0 STARLINK-5187,1 54065U 22136Q   23258.70826880 -.00000395  00000-0 -67037-5 0  9990,2 54065  53.2178  91.0779 0001191  82.8829 277.2299 15.08843315 50551,6917.87,95.437,540.559,538.911,0.0
54065.0,STARLINK-5187,PAYLOAD,2023-09-16 13:39:55,15.08831681,0.0001184,53.2179,87.2136,92.7238,267.389,0.00013709,1.894e-05,0.0,0 STARLINK-5187,1 54065U 22136Q   23259.56939509  .00001894  00000-0  13709-3 0  9996,2 54065  53.2179  87.2136 0001184  92.7238 267.3890 15.08831681 50204,6917.906,95.438,540.59,538.952,0.0
54065.0,STARLINK-5187,PAYLOAD,2023-09-16 18:26:05,15.08833689,0.0001188,53.2181,86.3216,92.7242,267.3887,0.0001498,2.097e-05,0.0,0 STARLINK-5187,1 54065U 22136Q   23259.76811501  .00002097  00000-0  14980-3 0  9997,2 54065  53.2181  86.3216 0001188  92.7242 267.3887 15.08833689 50717,6917.9,95.438,540.587,538.943,0.0
